GLOBALSTAR M094         
1 39074U 13005C   24323.86396978 -.00000117  00000+0 -72997-4 0  9990
2 39074  51.9945 102.4863 0001086 121.3025 238.7948 12.62265432545818
GLOBALSTAR M096         
1 39075U 13005D   24323.87714845 -.00000100  00000+0  18909-4 0  9993
2 39075  52.0045 150.7989 0001265 103.9657 256.1350 12.62264938544734
GLOBALSTAR M078         
1 39076U 13005E   24323.85027367 -.00000064  00000+0  22234-3 0  9992
2 39076  51.9867 235.6736 0001725  73.5880 286.5176 12.62267985543354
GLOBALSTAR M095         
1 39077U 13005F   24323.87714450 -.00000065  00000+0  21681-3 0  9997
2 39077  51.9796 232.8961 0001357  85.0223 275.0798 12.62268207543211
GLOBALSTAR M087         
1 52888U 22064A   24323.89491404 -.00000080  00000+0  96907-4 0  9991
2 52888  51.9785  29.2058 0035040 347.7974  12.2072 13.30670008118223
